{
  "type": "FeatureCollection",
  "features": [
    {
      "type": "Feature",
      "properties": {
        "norad_id": 67017,
        "name": "STARLINK-35498",
        "group": "last-30-days",
        "lat": -64.20332293878666,
        "lon": 168.8607883099592,
        "alt_km": 303.8745283041726,
        "timestamp": "2025-12-20T22:39:09.409713+00:00",
        "meta_object_name": "STARLINK-35498",
        "meta_object_id": "2025-293Q",
        "meta_epoch": "2025-12-20T14:00:03.000384",
        "meta_mean_motion": 15.91851936,
        "meta_eccentricity": 0.0003999,
        "meta_inclination": 69.9932,
        "meta_ra_of_asc_node": 300.9811,
        "meta_arg_of_pericenter": 267.3076,
        "meta_mean_anomaly": 81.4438,
        "meta_ephemeris_type": 0,
        "meta_classification_type": "U",
        "meta_norad_cat_id": 67017,
        "meta_element_set_no": 999,
        "meta_rev_at_epoch": 156,
        "meta_bstar": -0.0040150866,
        "meta_mean_motion_dot": -0.01319537,
        "meta_mean_motion_ddot": 0.00050350566,
        "tle_line1": "1 67017U 25293Q   25354.58336806 -.01319537  50351-3 -40151-2 0  9991",
        "tle_line2": "2 67017  69.9932 300.9811 0003999 267.3076  81.4438 15.91851936  1562"
      },
      "geometry": {
        "type": "Point",
        "coordinates": [
          168.8607883099592,
          -64.20332293878666
        ]
      }
    },
    {
      "type": "Feature",
      "properties": {
        "norad_id": 67018,
        "name": "STARLINK-36106",
        "group": "last-30-days",
        "lat": -65.65053488423068,
        "lon": 173.5567641431281,
        "alt_km": 303.7637612919207,
        "timestamp": "2025-12-20T22:39:09.409723+00:00",
        "meta_object_name": "STARLINK-36106",
        "meta_object_id": "2025-293R",
        "meta_epoch": "2025-12-20T14:00:03.000384",
        "meta_mean_motion": 15.91889562,
        "meta_eccentricity": 0.00040249,
        "meta_inclination": 69.9931,
        "meta_ra_of_asc_node": 300.9779,
        "meta_arg_of_pericenter": 268.1639,
        "meta_mean_anomaly": 83.006,
        "meta_ephemeris_type": 0,
        "meta_classification_type": "U",
        "meta_norad_cat_id": 67018,
        "meta_element_set_no": 999,
        "meta_rev_at_epoch": 148,
        "meta_bstar": -0.0040220682,
        "meta_mean_motion_dot": -0.01324359,
        "meta_mean_motion_ddot": 0.00050709417,
        "tle_line1": "1 67018U 25293R   25354.58336806 -.01324359  50709-3 -40221-2 0  9995",
        "tle_line2": "2 67018  69.9931 300.9779 0004024 268.1639  83.0060 15.91889562  1485"
      },
      "geometry": {
        "type": "Point",
        "coordinates": [
          173.5567641431281,
          -65.65053488423068
        ]
      }
    },
    {
      "type": "Feature",
      "properties": {
        "norad_id": 67019,
        "name": "STARLINK-35688",
        "group": "last-30-days",
        "lat": -66.85509014046863,
        "lon": 178.40503211735916,
        "alt_km": 303.6820585139003,
        "timestamp": "2025-12-20T22:39:09.409732+00:00",
        "meta_object_name": "STARLINK-35688",
        "meta_object_id": "2025-293S",
        "meta_epoch": "2025-12-20T14:00:03.000384",
        "meta_mean_motion": 15.91928212,
        "meta_eccentricity": 0.00039814,
        "meta_inclination": 69.993,
        "meta_ra_of_asc_node": 300.975,
        "meta_arg_of_pericenter": 267.4173,
        "meta_mean_anomaly": 86.0015,
        "meta_ephemeris_type": 0,
        "meta_classification_type": "U",
        "meta_norad_cat_id": 67019,
        "meta_element_set_no": 999,
        "meta_rev_at_epoch": 157,
        "meta_bstar": -0.0040283381,
        "meta_mean_motion_dot": -0.01328997,
        "meta_mean_motion_ddot": 0.00051057135,
        "tle_line1": "1 67019U 25293S   25354.58336806 -.01328997  51057-3 -40283-2 0  9993",
        "tle_line2": "2 67019  69.9930 300.9750 0003981 267.4173  86.0015 15.91928212  1579"
      },
      "geometry": {
        "type": "Point",
        "coordinates": [
          178.40503211735916,
          -66.85509014046863
        ]
      }
    },
    {
      "type": "Feature",
      "properties": {
        "norad_id": 67020,
        "name": "STARLINK-36172",
        "group": "last-30-days",
        "lat": -68.14366197371861,
        "lon": -174.7857052614696,
        "alt_km": 303.54908633424384,
        "timestamp": "2025-12-20T22:39:09.409743+00:00",
        "meta_object_name": "STARLINK-36172",
        "meta_object_id": "2025-293T",
        "meta_epoch": "2025-12-20T14:00:03.000384",
        "meta_mean_motion": 15.91977561,
        "meta_eccentricity": 0.0004038,
        "meta_inclination": 69.9929,
        "meta_ra_of_asc_node": 300.9718,
        "meta_arg_of_pericenter": 270.8051,
        "meta_mean_anomaly": 85.4689,
        "meta_ephemeris_type": 0,
        "meta_classification_type": "U",
        "meta_norad_cat_id": 67020,
        "meta_element_set_no": 999,
        "meta_rev_at_epoch": 149,
        "meta_bstar": -0.0040570936,
        "meta_mean_motion_dot": -0.01341789,
        "meta_mean_motion_ddot": 0.00051992922,
        "tle_line1": "1 67020U 25293T   25354.58336806 -.01341789  51993-3 -40571-2 0  9998",
        "tle_line2": "2 67020  69.9929 300.9718 0004038 270.8051  85.4689 15.91977561  1492"
      },
      "geometry": {
        "type": "Point",
        "coordinates": [
          -174.7857052614696,
          -68.14366197371861
        ]
      }
    },
    {
      "type": "Feature",
      "properties": {
        "norad_id": 67021,
        "name": "STARLINK-36184",
        "group": "last-30-days",
        "lat": -69.05101583482158,
        "lon": -167.9466513108321,
        "alt_km": 303.46554409517375,
        "timestamp": "2025-12-20T22:39:09.409751+00:00",
        "meta_object_name": "STARLINK-36184",
        "meta_object_id": "2025-293U",
        "meta_epoch": "2025-12-20T14:00:03.000384",
        "meta_mean_motion": 15.92021623,
        "meta_eccentricity": 0.00039969,
        "meta_inclination": 69.9932,
        "meta_ra_of_asc_node": 300.9685,
        "meta_arg_of_pericenter": 269.0506,
        "meta_mean_anomaly": 89.8301,
        "meta_ephemeris_type": 0,
        "meta_classification_type": "U",
        "meta_norad_cat_id": 67021,
        "meta_element_set_no": 999,
        "meta_rev_at_epoch": 149,
        "meta_bstar": -0.0040896354,
        "meta_mean_motion_dot": -0.01355464,
        "meta_mean_motion_ddot": 0.00052997933,
        "tle_line1": "1 67021U 25293U   25354.58336806 -.01355464  52998-3 -40896-2 0  9990",
        "tle_line2": "2 67021  69.9932 300.9685 0003996 269.0506  89.8301 15.92021623  1496"
      },
      "geometry": {
        "type": "Point",
        "coordinates": [
          -167.9466513108321,
          -69.05101583482158
        ]
      }
    },
    {
      "type": "Feature",
      "properties": {
        "norad_id": 67022,
        "name": "STARLINK-36209",
        "group": "last-30-days",
        "lat": -69.73607474994526,
        "lon": -159.34680336947605,
        "alt_km": 303.3160574406884,
        "timestamp": "2025-12-20T22:39:09.409762+00:00",
        "meta_object_name": "STARLINK-36209",
        "meta_object_id": "2025-293V",
        "meta_epoch": "2025-12-20T14:00:03.000384",
        "meta_mean_motion": 15.92062869,
        "meta_eccentricity": 0.00040584,
        "meta_inclination": 69.993,
        "meta_ra_of_asc_node": 300.965,
        "meta_arg_of_pericenter": 269.8912,
        "meta_mean_anomaly": 92.0452,
        "meta_ephemeris_type": 0,
        "meta_classification_type": "U",
        "meta_norad_cat_id": 67022,
        "meta_element_set_no": 999,
        "meta_rev_at_epoch": 149,
        "meta_bstar": -0.0040942506,
        "meta_mean_motion_dot": -0.01359869,
        "meta_mean_motion_ddot": 0.00053338035,
        "tle_line1": "1 67022U 25293V   25354.58336806 -.01359869  53338-3 -40943-2 0  9996",
        "tle_line2": "2 67022  69.9930 300.9650 0004058 269.8912  92.0452 15.92062869  1496"
      },
      "geometry": {
        "type": "Point",
        "coordinates": [
          -159.34680336947605,
          -69.73607474994526
        ]
      }
    },
    {
      "type": "Feature",
      "properties": {
        "norad_id": 67023,
        "name": "STARLINK-36191",
        "group": "last-30-days",
        "lat": -69.96896091546427,
        "lon": -151.9984898265514,
        "alt_km": 303.17074364838663,
        "timestamp": "2025-12-20T22:39:09.409775+00:00",
        "meta_object_name": "STARLINK-36191",
        "meta_object_id": "2025-293W",
        "meta_epoch": "2025-12-20T14:00:03.000384",
        "meta_mean_motion": 15.92103209,
        "meta_eccentricity": 0.00041174,
        "meta_inclination": 69.9929,
        "meta_ra_of_asc_node": 300.9614,
        "meta_arg_of_pericenter": 271.2327,
        "meta_mean_anomaly": 93.1996,
        "meta_ephemeris_type": 0,
        "meta_classification_type": "U",
        "meta_norad_cat_id": 67023,
        "meta_element_set_no": 999,
        "meta_rev_at_epoch": 138,
        "meta_bstar": -0.0040973101,
        "meta_mean_motion_dot": -0.01363712,
        "meta_mean_motion_ddot": 0.00053637981,
        "tle_line1": "1 67023U 25293W   25354.58336806 -.01363712  53638-3 -40973-2 0  9995",
        "tle_line2": "2 67023  69.9929 300.9614 0004117 271.2327  93.1996 15.92103209  1385"
      },
      "geometry": {
        "type": "Point",
        "coordinates": [
          -151.9984898265514,
          -69.96896091546427
        ]
      }
    }
  ]
}